SL-14 R/B               
1 21423U 91042B   25354.88558462  .00000313  00000+0  36625-4 0  9995
2 21423  82.4934 294.0847 0018106 136.0893 224.1764 14.81745519841402
ERS-1                   
1 21574U 91050A   25354.80062632  .00000201  00000+0  79030-4 0  9995
2 21574  98.7900   6.0569 0032997  76.8177 283.6689 14.39370271804388
ARIANE 40 R/B           
1 21610U 91050F   25354.41491311  .00000245  00000+0  86064-4 0  9996
2 21610  98.2155  44.5682 0002315 334.1817  25.9257 14.42819141807560
INTERCOSMOS 25          
1 21819U 91086A   25354.89144911  .00001815  00000+0  36144-3 0  9996
2 21819  82.6069 357.6446 1486368 286.8215  57.5392 12.11757454487149
SL-8 R/B                
1 21876U 92008B   25354.89607350  .00000099  00000+0  85750-4 0  9996
2 21876  82.9268 326.3792 0034672 357.2189  62.1942 13.75960721698581
SL-8 R/B                
1 21938U 92020B   25354.90504134  .00000125  00000+0  11370-3 0  9993
2 21938  82.9297 212.2542 0029429 155.4829 215.5190 13.75529036690302
USA 81                  
1 21949U 92023A   25354.57887513  .00000143  00000+0  45566-4 0  9991
2 21949  85.0079 177.0549 0001152  76.9071 283.2250 14.32329508 83468
COSMOS 2219             
1 22219U 92076A   25354.85964827  .00000211  00000+0  13552-3 0  9990
2 22219  71.0573 182.8582 0019233 315.8435  44.1151 14.14064805707230
SL-16 R/B               
1 22220U 92076B   25354.78754148  .00000238  00000+0  14252-3 0  9994
2 22220  71.0007 354.5790 0014366 223.2183 309.5188 14.16843597710650
COSMOS 2221             
1 22236U 92080A   25354.10960167  .00001385  00000+0  12157-3 0  9998
2 22236  82.5038 355.2708 0016275  98.9666 261.3399 14.95785829768897
SL-16 R/B               
1 22285U 92093B   25354.94192077  .00000096  00000+0  73536-4 0  9992
2 22285  71.0203 169.5776 0002372  44.0439 316.0873 14.15434654702018
COSMOS 2228             
1 22286U 92094A   25354.84641568  .00001589  00000+0  13632-3 0  9995
2 22286  82.5182 312.7774 0017116 202.2947 157.7533 14.96762716764266
