CCSDS_OMM_VERS = 2.0
CREATION_DATE  = 
ORIGINATOR     = 

OBJECT_NAME    = SL-14 R/B
OBJECT_ID      = 1991-042B
CENTER_NAME    = EARTH
REF_FRAME      = TEME
TIME_SYSTEM    = UTC
MEAN_ELEMENT_THEORY = SGP/SGP4

EPOCH          = 2025-12-20T21:15:14.511168
MEAN_MOTION    = 14.81745519
ECCENTRICITY   = .00181067
INCLINATION    = 82.4934
RA_OF_ASC_NODE = 294.0847
ARG_OF_PERICENTER = 136.0893
MEAN_ANOMALY   = 224.1764

EPHEMERIS_TYPE = 0
CLASSIFICATION_TYPE = U
NORAD_CAT_ID   = 21423
ELEMENT_SET_NO = 999
REV_AT_EPOCH   = 84140
BSTAR          = .36624933E-4
MEAN_MOTION_DOT = .313E-5
MEAN_MOTION_DDOT = 0

CCSDS_OMM_VERS = 2.0
CREATION_DATE  = 
ORIGINATOR     = 

OBJECT_NAME    = ERS-1
OBJECT_ID      = 1991-050A
CENTER_NAME    = EARTH
REF_FRAME      = TEME
TIME_SYSTEM    = UTC
MEAN_ELEMENT_THEORY = SGP/SGP4

EPOCH          = 2025-12-20T19:12:54.114048
MEAN_MOTION    = 14.39370271
ECCENTRICITY   = .00329979
INCLINATION    = 98.7900
RA_OF_ASC_NODE = 6.0569
ARG_OF_PERICENTER = 76.8177
MEAN_ANOMALY   = 283.6689

EPHEMERIS_TYPE = 0
CLASSIFICATION_TYPE = U
NORAD_CAT_ID   = 21574
ELEMENT_SET_NO = 999
REV_AT_EPOCH   = 80438
BSTAR          = .79029587E-4
MEAN_MOTION_DOT = .201E-5
MEAN_MOTION_DDOT = 0

CCSDS_OMM_VERS = 2.0
CREATION_DATE  = 
ORIGINATOR     = 

OBJECT_NAME    = ARIANE 40 R/B
OBJECT_ID      = 1991-050F
CENTER_NAME    = EARTH
REF_FRAME      = TEME
TIME_SYSTEM    = UTC
MEAN_ELEMENT_THEORY = SGP/SGP4

EPOCH          = 2025-12-20T09:57:28.492704
MEAN_MOTION    = 14.42819141
ECCENTRICITY   = .00023159
INCLINATION    = 98.2155
RA_OF_ASC_NODE = 44.5682
ARG_OF_PERICENTER = 334.1817
MEAN_ANOMALY   = 25.9257

EPHEMERIS_TYPE = 0
CLASSIFICATION_TYPE = U
NORAD_CAT_ID   = 21610
ELEMENT_SET_NO = 999
REV_AT_EPOCH   = 80756
BSTAR          = .86063997E-4
MEAN_MOTION_DOT = .245E-5
MEAN_MOTION_DDOT = 0

CCSDS_OMM_VERS = 2.0
CREATION_DATE  = 
ORIGINATOR     = 

OBJECT_NAME    = INTERCOSMOS 25
OBJECT_ID      = 1991-086A
CENTER_NAME    = EARTH
REF_FRAME      = TEME
TIME_SYSTEM    = UTC
MEAN_ELEMENT_THEORY = SGP/SGP4

EPOCH          = 2025-12-20T21:23:41.203104
MEAN_MOTION    = 12.11757454
ECCENTRICITY   = .14863688
INCLINATION    = 82.6069
RA_OF_ASC_NODE = 357.6446
ARG_OF_PERICENTER = 286.8215
MEAN_ANOMALY   = 57.5392

EPHEMERIS_TYPE = 0
CLASSIFICATION_TYPE = U
NORAD_CAT_ID   = 21819
ELEMENT_SET_NO = 999
REV_AT_EPOCH   = 48714
BSTAR          = .36144146E-3
MEAN_MOTION_DOT = .1815E-4
MEAN_MOTION_DDOT = 0

CCSDS_OMM_VERS = 2.0
CREATION_DATE  = 
ORIGINATOR     = 

OBJECT_NAME    = SL-8 R/B
OBJECT_ID      = 1992-008B
CENTER_NAME    = EARTH
REF_FRAME      = TEME
TIME_SYSTEM    = UTC
MEAN_ELEMENT_THEORY = SGP/SGP4

EPOCH          = 2025-12-20T21:30:20.750400
MEAN_MOTION    = 13.75960721
ECCENTRICITY   = .00346724
INCLINATION    = 82.9268
RA_OF_ASC_NODE = 326.3792
ARG_OF_PERICENTER = 357.2189
MEAN_ANOMALY   = 62.1942

EPHEMERIS_TYPE = 0
CLASSIFICATION_TYPE = U
NORAD_CAT_ID   = 21876
ELEMENT_SET_NO = 999
REV_AT_EPOCH   = 69858
BSTAR          = .85749792E-4
MEAN_MOTION_DOT = .99E-6
MEAN_MOTION_DDOT = 0

CCSDS_OMM_VERS = 2.0
CREATION_DATE  = 
ORIGINATOR     = 

OBJECT_NAME    = SL-8 R/B
OBJECT_ID      = 1992-020B
CENTER_NAME    = EARTH
REF_FRAME      = TEME
TIME_SYSTEM    = UTC
MEAN_ELEMENT_THEORY = SGP/SGP4

EPOCH          = 2025-12-20T21:43:15.571776
MEAN_MOTION    = 13.75529036
ECCENTRICITY   = .00294298
INCLINATION    = 82.9297
RA_OF_ASC_NODE = 212.2542
ARG_OF_PERICENTER = 155.4829
MEAN_ANOMALY   = 215.5190

EPHEMERIS_TYPE = 0
CLASSIFICATION_TYPE = U
NORAD_CAT_ID   = 21938
ELEMENT_SET_NO = 999
REV_AT_EPOCH   = 69030
BSTAR          = .11369773E-3
MEAN_MOTION_DOT = .125E-5
MEAN_MOTION_DDOT = 0

CCSDS_OMM_VERS = 2.0
CREATION_DATE  = 
ORIGINATOR     = 

OBJECT_NAME    = USA 81
OBJECT_ID      = 1992-023A
CENTER_NAME    = EARTH
REF_FRAME      = TEME
TIME_SYSTEM    = UTC
MEAN_ELEMENT_THEORY = SGP/SGP4

EPOCH          = 2025-12-20T13:53:34.811232
MEAN_MOTION    = 14.32329508
ECCENTRICITY   = .0001152
INCLINATION    = 85.0079
RA_OF_ASC_NODE = 177.0549
ARG_OF_PERICENTER = 76.9071
MEAN_ANOMALY   = 283.2250

EPHEMERIS_TYPE = 0
CLASSIFICATION_TYPE = U
NORAD_CAT_ID   = 21949
ELEMENT_SET_NO = 999
REV_AT_EPOCH   = 8346
BSTAR          = .45566E-4
MEAN_MOTION_DOT = .143E-5
MEAN_MOTION_DDOT = 0

CCSDS_OMM_VERS = 2.0
CREATION_DATE  = 
ORIGINATOR     = 

OBJECT_NAME    = COSMOS 2219
OBJECT_ID      = 1992-076A
CENTER_NAME    = EARTH
REF_FRAME      = TEME
TIME_SYSTEM    = UTC
MEAN_ELEMENT_THEORY = SGP/SGP4

EPOCH          = 2025-12-20T20:37:53.610528
MEAN_MOTION    = 14.14064805
ECCENTRICITY   = .00192339
INCLINATION    = 71.0573
RA_OF_ASC_NODE = 182.8582
ARG_OF_PERICENTER = 315.8435
MEAN_ANOMALY   = 44.1151

EPHEMERIS_TYPE = 0
CLASSIFICATION_TYPE = U
NORAD_CAT_ID   = 22219
ELEMENT_SET_NO = 999
REV_AT_EPOCH   = 70723
BSTAR          = .13552282E-3
MEAN_MOTION_DOT = .211E-5
MEAN_MOTION_DDOT = 0

CCSDS_OMM_VERS = 2.0
CREATION_DATE  = 
ORIGINATOR     = 

OBJECT_NAME    = SL-16 R/B
OBJECT_ID      = 1992-076B
CENTER_NAME    = EARTH
REF_FRAME      = TEME
TIME_SYSTEM    = UTC
MEAN_ELEMENT_THEORY = SGP/SGP4

EPOCH          = 2025-12-20T18:54:03.583872
MEAN_MOTION    = 14.16843597
ECCENTRICITY   = .00143669
INCLINATION    = 71.0007
RA_OF_ASC_NODE = 354.5790
ARG_OF_PERICENTER = 223.2183
MEAN_ANOMALY   = 309.5188

EPHEMERIS_TYPE = 0
CLASSIFICATION_TYPE = U
NORAD_CAT_ID   = 22220
ELEMENT_SET_NO = 999
REV_AT_EPOCH   = 71065
BSTAR          = .14251532E-3
MEAN_MOTION_DOT = .238E-5
MEAN_MOTION_DDOT = 0

CCSDS_OMM_VERS = 2.0
CREATION_DATE  = 
ORIGINATOR     = 

OBJECT_NAME    = COSMOS 2221
OBJECT_ID      = 1992-080A
CENTER_NAME    = EARTH
REF_FRAME      = TEME
TIME_SYSTEM    = UTC
MEAN_ELEMENT_THEORY = SGP/SGP4

EPOCH          = 2025-12-20T02:37:49.584288
MEAN_MOTION    = 14.95785829
ECCENTRICITY   = .00162756
INCLINATION    = 82.5038
RA_OF_ASC_NODE = 355.2708
ARG_OF_PERICENTER = 98.9666
MEAN_ANOMALY   = 261.3399

EPHEMERIS_TYPE = 0
CLASSIFICATION_TYPE = U
NORAD_CAT_ID   = 22236
ELEMENT_SET_NO = 999
REV_AT_EPOCH   = 76889
BSTAR          = .12157075E-3
MEAN_MOTION_DOT = .1385E-4
MEAN_MOTION_DDOT = 0

CCSDS_OMM_VERS = 2.0
CREATION_DATE  = 
ORIGINATOR     = 

OBJECT_NAME    = SL-16 R/B
OBJECT_ID      = 1992-093B
CENTER_NAME    = EARTH
REF_FRAME      = TEME
TIME_SYSTEM    = UTC
MEAN_ELEMENT_THEORY = SGP/SGP4

EPOCH          = 2025-12-20T22:36:21.954528
MEAN_MOTION    = 14.15434654
ECCENTRICITY   = .00023726
INCLINATION    = 71.0203
RA_OF_ASC_NODE = 169.5776
ARG_OF_PERICENTER = 44.0439
MEAN_ANOMALY   = 316.0873

EPHEMERIS_TYPE = 0
CLASSIFICATION_TYPE = U
NORAD_CAT_ID   = 22285
ELEMENT_SET_NO = 999
REV_AT_EPOCH   = 70201
BSTAR          = .73535824E-4
MEAN_MOTION_DOT = .96E-6
MEAN_MOTION_DDOT = 0

CCSDS_OMM_VERS = 2.0
CREATION_DATE  = 
ORIGINATOR     = 

OBJECT_NAME    = COSMOS 2228
OBJECT_ID      = 1992-094A
CENTER_NAME    = EARTH
REF_FRAME      = TEME
TIME_SYSTEM    = UTC
MEAN_ELEMENT_THEORY = SGP/SGP4

EPOCH          = 2025-12-20T20:18:50.314752
MEAN_MOTION    = 14.96762716
ECCENTRICITY   = .00171162
INCLINATION    = 82.5182
RA_OF_ASC_NODE = 312.7774
ARG_OF_PERICENTER = 202.2947
MEAN_ANOMALY   = 157.7533

EPHEMERIS_TYPE = 0
CLASSIFICATION_TYPE = U
NORAD_CAT_ID   = 22286
ELEMENT_SET_NO = 999
REV_AT_EPOCH   = 76426
BSTAR          = .1363245E-3
MEAN_MOTION_DOT = .1589E-4
MEAN_MOTION_DDOT = 0

